{
  "type": "FeatureCollection",
  "features": [
    {
      "type": "Feature",
      "properties": {
        "norad_id": 33901,
        "name": "COSMOS 2251 DEB",
        "group": "cosmos-2251-debris",
        "lat": -22.72114873266787,
        "lon": -137.57363753067085,
        "alt_km": 504.17869350402816,
        "timestamp": "2025-12-19T06:59:44.299595+00:00",
        "meta_object_name": "COSMOS 2251 DEB",
        "meta_object_id": "1993-036DE",
        "meta_epoch": "2025-12-18T09:31:14.440224",
        "meta_mean_motion": 15.16540123,
        "meta_eccentricity": 0.00306456,
        "meta_inclination": 73.7748,
        "meta_ra_of_asc_node": 37.3169,
        "meta_arg_of_pericenter": 169.0613,
        "meta_mean_anomaly": 191.1254,
        "meta_ephemeris_type": 0,
        "meta_classification_type": "U",
        "meta_norad_cat_id": 33901,
        "meta_element_set_no": 999,
        "meta_rev_at_epoch": 89599,
        "meta_bstar": 0.0024200713,
        "meta_mean_motion_dot": 0.00048056,
        "meta_mean_motion_ddot": 0,
        "tle_line1": "1 33901U 93036DE  25352.39669491  .00048056  00000+0  24201-2 0  9994",
        "tle_line2": "2 33901  73.7748  37.3169 0030645 169.0613 191.1254 15.16540123895998"
      },
      "geometry": {
        "type": "Point",
        "coordinates": [
          -137.57363753067085,
          -22.72114873266787
        ]
      }
    },
    {
      "type": "Feature",
      "properties": {
        "norad_id": 33905,
        "name": "COSMOS 2251 DEB",
        "group": "cosmos-2251-debris",
        "lat": 6.356722435436961,
        "lon": 122.67145586237993,
        "alt_km": 735.98193729178,
        "timestamp": "2025-12-19T06:59:44.299606+00:00",
        "meta_object_name": "COSMOS 2251 DEB",
        "meta_object_id": "1993-036DJ",
        "meta_epoch": "2025-12-18T22:05:22.216992",
        "meta_mean_motion": 14.35407236,
        "meta_eccentricity": 0.00584467,
        "meta_inclination": 73.8871,
        "meta_ra_of_asc_node": 305.2034,
        "meta_arg_of_pericenter": 193.4102,
        "meta_mean_anomaly": 223.2519,
        "meta_ephemeris_type": 0,
        "meta_classification_type": "U",
        "meta_norad_cat_id": 33905,
        "meta_element_set_no": 999,
        "meta_rev_at_epoch": 87776,
        "meta_bstar": 0.00045726097,
        "meta_mean_motion_dot": 1.312e-05,
        "meta_mean_motion_ddot": 0,
        "tle_line1": "1 33905U 93036DJ  25352.92039603  .00001312  00000+0  45726-3 0  9993",
        "tle_line2": "2 33905  73.8871 305.2034 0058446 193.4102 223.2519 14.35407236877764"
      },
      "geometry": {
        "type": "Point",
        "coordinates": [
          122.67145586237993,
          6.356722435436961
        ]
      }
    },
    {
      "type": "Feature",
      "properties": {
        "norad_id": 33906,
        "name": "COSMOS 2251 DEB",
        "group": "cosmos-2251-debris",
        "lat": -29.190550760160725,
        "lon": 138.22859487765643,
        "alt_km": 723.4492382984217,
        "timestamp": "2025-12-19T06:59:44.299616+00:00",
        "meta_object_name": "COSMOS 2251 DEB",
        "meta_object_id": "1993-036DK",
        "meta_epoch": "2025-12-18T22:04:04.008576",
        "meta_mean_motion": 14.57191399,
        "meta_eccentricity": 0.00368442,
        "meta_inclination": 74.0302,
        "meta_ra_of_asc_node": 309.7294,
        "meta_arg_of_pericenter": 338.2353,
        "meta_mean_anomaly": 81.8391,
        "meta_ephemeris_type": 0,
        "meta_classification_type": "U",
        "meta_norad_cat_id": 33906,
        "meta_element_set_no": 999,
        "meta_rev_at_epoch": 88098,
        "meta_bstar": 0.0014422865,
        "meta_mean_motion_dot": 6.548e-05,
        "meta_mean_motion_ddot": 0,
        "tle_line1": "1 33906U 93036DK  25352.91949084  .00006548  00000+0  14423-2 0  9991",
        "tle_line2": "2 33906  74.0302 309.7294 0036844 338.2353  81.8391 14.57191399880987"
      },
      "geometry": {
        "type": "Point",
        "coordinates": [
          138.22859487765643,
          -29.190550760160725
        ]
      }
    },
    {
      "type": "Feature",
      "properties": {
        "norad_id": 33907,
        "name": "COSMOS 2251 DEB",
        "group": "cosmos-2251-debris",
        "lat": -73.09041080097855,
        "lon": -48.2160658180821,
        "alt_km": 871.9040711992557,
        "timestamp": "2025-12-19T06:59:44.299626+00:00",
        "meta_object_name": "COSMOS 2251 DEB",
        "meta_object_id": "1993-036DL",
        "meta_epoch": "2025-12-18T13:38:38.524416",
        "meta_mean_motion": 14.30556579,
        "meta_eccentricity": 0.01119294,
        "meta_inclination": 74.0696,
        "meta_ra_of_asc_node": 23.065,
        "meta_arg_of_pericenter": 76.8102,
        "meta_mean_anomaly": 77.4902,
        "meta_ephemeris_type": 0,
        "meta_classification_type": "U",
        "meta_norad_cat_id": 33907,
        "meta_element_set_no": 999,
        "meta_rev_at_epoch": 86663,
        "meta_bstar": 0.00134518,
        "meta_mean_motion_dot": 3.733e-05,
        "meta_mean_motion_ddot": 0,
        "tle_line1": "1 33907U 93036DL  25352.56850144  .00003733  00000+0  13452-2 0  9995",
        "tle_line2": "2 33907  74.0696  23.0650 0111929  76.8102  77.4902 14.30556579866632"
      },
      "geometry": {
        "type": "Point",
        "coordinates": [
          -48.2160658180821,
          -73.09041080097855
        ]
      }
    },
    {
      "type": "Feature",
      "properties": {
        "norad_id": 33908,
        "name": "COSMOS 2251 DEB",
        "group": "cosmos-2251-debris",
        "lat": 58.21412756209251,
        "lon": -13.76406304617432,
        "alt_km": 883.3593423680431,
        "timestamp": "2025-12-19T06:59:44.299637+00:00",
        "meta_object_name": "COSMOS 2251 DEB",
        "meta_object_id": "1993-036DM",
        "meta_epoch": "2025-12-18T13:21:34.172064",
        "meta_mean_motion": 14.07383699,
        "meta_eccentricity": 0.02226289,
        "meta_inclination": 73.837,
        "meta_ra_of_asc_node": 195.4437,
        "meta_arg_of_pericenter": 217.8806,
        "meta_mean_anomaly": 140.6491,
        "meta_ephemeris_type": 0,
        "meta_classification_type": "U",
        "meta_norad_cat_id": 33908,
        "meta_element_set_no": 999,
        "meta_rev_at_epoch": 85555,
        "meta_bstar": 0.0015133609,
        "meta_mean_motion_dot": 3.164e-05,
        "meta_mean_motion_ddot": 0,
        "tle_line1": "1 33908U 93036DM  25352.55664551  .00003164  00000+0  15134-2 0  9997",
        "tle_line2": "2 33908  73.8370 195.4437 0222628 217.8806 140.6491 14.07383699855553"
      },
      "geometry": {
        "type": "Point",
        "coordinates": [
          -13.76406304617432,
          58.21412756209251
        ]
      }
    },
    {
      "type": "Feature",
      "properties": {
        "norad_id": 33911,
        "name": "COSMOS 2251 DEB",
        "group": "cosmos-2251-debris",
        "lat": 39.141068931852594,
        "lon": 162.5180171546851,
        "alt_km": 634.6887183199888,
        "timestamp": "2025-12-19T06:59:44.299647+00:00",
        "meta_object_name": "COSMOS 2251 DEB",
        "meta_object_id": "1993-036DQ",
        "meta_epoch": "2025-12-18T21:44:01.032864",
        "meta_mean_motion": 14.75001431,
        "meta_eccentricity": 0.00140943,
        "meta_inclination": 74.0896,
        "meta_ra_of_asc_node": 149.8456,
        "meta_arg_of_pericenter": 86.0047,
        "meta_mean_anomaly": 66.8451,
        "meta_ephemeris_type": 0,
        "meta_classification_type": "U",
        "meta_norad_cat_id": 33911,
        "meta_element_set_no": 999,
        "meta_rev_at_epoch": 88735,
        "meta_bstar": 0.0015567305,
        "meta_mean_motion_dot": 0.00010474,
        "meta_mean_motion_ddot": 0,
        "tle_line1": "1 33911U 93036DQ  25352.90556751  .00010474  00000+0  15567-2 0  9994",
        "tle_line2": "2 33911  74.0896 149.8456 0014094  86.0047  66.8451 14.75001431887350"
      },
      "geometry": {
        "type": "Point",
        "coordinates": [
          162.5180171546851,
          39.141068931852594
        ]
      }
    },
    {
      "type": "Feature",
      "properties": {
        "norad_id": 33912,
        "name": "COSMOS 2251 DEB",
        "group": "cosmos-2251-debris",
        "lat": 67.86843483658468,
        "lon": -47.365975836064614,
        "alt_km": 719.4315299027412,
        "timestamp": "2025-12-19T06:59:44.299657+00:00",
        "meta_object_name": "COSMOS 2251 DEB",
        "meta_object_id": "1993-036DR",
        "meta_epoch": "2025-12-18T22:56:29.258016",
        "meta_mean_motion": 14.51927967,
        "meta_eccentricity": 0.00113593,
        "meta_inclination": 74.0326,
        "meta_ra_of_asc_node": 178.015,
        "meta_arg_of_pericenter": 256.9966,
        "meta_mean_anomaly": 255.1596,
        "meta_ephemeris_type": 0,
        "meta_classification_type": "U",
        "meta_norad_cat_id": 33912,
        "meta_element_set_no": 999,
        "meta_rev_at_epoch": 88523,
        "meta_bstar": 0.00056863507,
        "meta_mean_motion_dot": 2.268e-05,
        "meta_mean_motion_ddot": 0,
        "tle_line1": "1 33912U 93036DR  25352.95589419  .00002268  00000+0  56864-3 0  9995",
        "tle_line2": "2 33912  74.0326 178.0150 0011359 256.9966 255.1596 14.51927967885236"
      },
      "geometry": {
        "type": "Point",
        "coordinates": [
          -47.365975836064614,
          67.86843483658468
        ]
      }
    }
  ]
}